STARLINK-2555           
1 48291U 21036R   26068.32147729  .00007762  00000+0  27379-3 0  9995
2 48291  53.1596  79.5263 0001444  93.9997 266.1168 15.30217775268314
STRIX-4                 
1 60352U 24137A   26068.65404516  .00020530  00000+0  71820-3 0  9996
2 60352  43.0134 129.8162 0016840   5.2738 354.8289 15.29026223 88766
